{"type": "FeatureCollection", "features": [ {"type": "Feature", "properties": {"norad_id": 52912, "name": "GAOFEN-12 03", "group": "resource", "lat": -50.4284362193112, "lon": 55.71964311371613, "alt_km": 638.703641749833, "timestamp": "2025-12-24T05:51:19.263490+00:00", "meta": {"OBJECT_NAME": "GAOFEN-12 03", "OBJECT_ID": "2022-069A", "EPOCH": "2025-12-23T23:56:43.732032", "MEAN_MOTION": 14.79636891, "ECCENTRICITY": 0.00018674, "INCLINATION": 97.8481, "RA_OF_ASC_NODE": 245.0867, "ARG_OF_PERICENTER": 50.3455, "MEAN_ANOMALY": 309.7921, "EPHEMERIS_TYPE": 0, "CLASSIFICATION_TYPE": "U", "NORAD_CAT_ID": 52912, "ELEMENT_SET_NO": 999, "REV_AT_EPOCH": 18870, "BSTAR": 0.00026267894, "MEAN_MOTION_DOT": 1.919e-05, "MEAN_MOTION_DDOT": 0}, "tle": {"line1": "1 52912U 22069A   25357.99772838  .00001919  00000+0  26268-3 0  9999", "line2": "2 52912  97.8481 245.0867 0001867  50.3455 309.7921 14.79636891188703"}}, "geometry": {"type": "Point", "coordinates": [55.71964311371613, -50.4284362193112]}}, {"type": "Feature", "properties": {"norad_id": 54754, "name": "SWOT", "group": "resource", "lat": 14.134803553220157, "lon": 88.2877675959179, "alt_km": 893.9168858361227, "timestamp": "2025-12-24T05:51:19.263500+00:00", "meta": {"OBJECT_NAME": "SWOT", "OBJECT_ID": "2022-173A", "EPOCH": "2025-12-23T22:12:30.113856", "MEAN_MOTION": 14.00168471, "ECCENTRICITY": 3.922e-05, "INCLINATION": 77.6109, "RA_OF_ASC_NODE": 271.8908, "ARG_OF_PERICENTER": 83.1741, "MEAN_ANOMALY": 276.9455, "EPHEMERIS_TYPE": 0, "CLASSIFICATION_TYPE": "U", "NORAD_CAT_ID": 54754, "ELEMENT_SET_NO": 999, "REV_AT_EPOCH": 15462, "BSTAR": 4.9836582e-05, "MEAN_MOTION_DOT": 7.1e-07, "MEAN_MOTION_DDOT": 0}, "tle": {"line1": "1 54754U 22173A   25357.92534854  .00000071  00000+0  49837-4 0  9994", "line2": "2 54754  77.6109 271.8908 0000392  83.1741 276.9455 14.00168471154628"}}, "geometry": {"type": "Point", "coordinates": [88.2877675959179, 14.134803553220157]}}, {"type": "Feature", "properties": {"norad_id": 57654, "name": "GAOFEN-12 04", "group": "resource", "lat": 43.929598071436416, "lon": -93.87270300890411, "alt_km": 625.7879124657202, "timestamp": "2025-12-24T05:51:19.263510+00:00", "meta": {"OBJECT_NAME": "GAOFEN-12 04", "OBJECT_ID": "2023-123A", "EPOCH": "2025-12-23T23:09:48.616128", "MEAN_MOTION": 14.7973103, "ECCENTRICITY": 0.00012044, "INCLINATION": 97.9128, "RA_OF_ASC_NODE": 273.5524, "ARG_OF_PERICENTER": 78.9781, "MEAN_ANOMALY": 281.1566, "EPHEMERIS_TYPE": 0, "CLASSIFICATION_TYPE": "U", "NORAD_CAT_ID": 57654, "ELEMENT_SET_NO": 999, "REV_AT_EPOCH": 12671, "BSTAR": 0.00018586971, "MEAN_MOTION_DOT": 1.345e-05, "MEAN_MOTION_DDOT": 0}, "tle": {"line1": "1 57654U 23123A   25357.96514602  .00001345  00000+0  18587-3 0  9997", "line2": "2 57654  97.9128 273.5524 0001204  78.9781 281.1566 14.79731030126711"}}, "geometry": {"type": "Point", "coordinates": [-93.87270300890411, 43.929598071436416]}}, {"type": "Feature", "properties": {"norad_id": 59065, "name": "PARS 1", "group": "resource", "lat": 78.01452231144563, "lon": -172.4297090047191, "alt_km": 431.5027944860267, "timestamp": "2025-12-24T05:51:19.263520+00:00", "meta": {"OBJECT_NAME": "PARS 1", "OBJECT_ID": "2024-039Q", "EPOCH": "2025-12-23T23:11:37.459392", "MEAN_MOTION": 15.4122145, "ECCENTRICITY": 0.0011694, "INCLINATION": 97.4653, "RA_OF_ASC_NODE": 329.1393, "ARG_OF_PERICENTER": 37.9208, "MEAN_ANOMALY": 322.286, "EPHEMERIS_TYPE": 0, "CLASSIFICATION_TYPE": "U", "NORAD_CAT_ID": 59065, "ELEMENT_SET_NO": 999, "REV_AT_EPOCH": 10161, "BSTAR": 0.00028936698, "MEAN_MOTION_DOT": 0.00011964, "MEAN_MOTION_DDOT": 0}, "tle": {"line1": "1 59065U 24039Q   25357.96640578  .00011964  00000+0  28937-3 0  9992", "line2": "2 59065  97.4653 329.1393 0011694  37.9208 322.2860 15.41221450101618"}}, "geometry": {"type": "Point", "coordinates": [-172.4297090047191, 78.01452231144563]}}, {"type": "Feature", "properties": {"norad_id": 59371, "name": "RESURS-P 4", "group": "resource", "lat": -49.70405797915413, "lon": 115.69675859271352, "alt_km": 476.7624856700295, "timestamp": "2025-12-24T05:51:19.263530+00:00", "meta": {"OBJECT_NAME": "RESURS-P 4", "OBJECT_ID": "2024-061A", "EPOCH": "2025-12-23T22:35:03.090336", "MEAN_MOTION": 15.32183304, "ECCENTRICITY": 8.198e-05, "INCLINATION": 97.2564, "RA_OF_ASC_NODE": 304.0424, "ARG_OF_PERICENTER": 73.6764, "MEAN_ANOMALY": 286.4568, "EPHEMERIS_TYPE": 0, "CLASSIFICATION_TYPE": "U", "NORAD_CAT_ID": 59371, "ELEMENT_SET_NO": 999, "REV_AT_EPOCH": 9692, "BSTAR": 0.00013544941, "MEAN_MOTION_DOT": 4.132e-05, "MEAN_MOTION_DDOT": 0}, "tle": {"line1": "1 59371U 24061A   25357.94100799  .00004132  00000+0  13545-3 0  9999", "line2": "2 59371  97.2564 304.0424 0000819  73.6764 286.4568 15.32183304 96923"}}, "geometry": {"type": "Point", "coordinates": [115.69675859271352, -49.70405797915413]}}, {"type": "Feature", "properties": {"norad_id": 59625, "name": "LEGION 1", "group": "resource", "lat": 9.32304611189447, "lon": -105.97315261438271, "alt_km": 518.1080058696516, "timestamp": "2025-12-24T05:51:19.263540+00:00", "meta": {"OBJECT_NAME": "LEGION 1", "OBJECT_ID": "2024-081A", "EPOCH": "2025-12-23T21:11:17.288736", "MEAN_MOTION": 15.16584657, "ECCENTRICITY": 0.00036136, "INCLINATION": 97.5198, "RA_OF_ASC_NODE": 72.4262, "ARG_OF_PERICENTER": 265.4594, "MEAN_ANOMALY": 94.6227, "EPHEMERIS_TYPE": 0, "CLASSIFICATION_TYPE": "U", "NORAD_CAT_ID": 59625, "ELEMENT_SET_NO": 999, "REV_AT_EPOCH": 9096, "BSTAR": 0.00028051284, "MEAN_MOTION_DOT": 5.411e-05, "MEAN_MOTION_DDOT": 0}, "tle": {"line1": "1 59625U 24081A   25357.88283899  .00005411  00000+0  28051-3 0  9998", "line2": "2 59625  97.5198  72.4262 0003613 265.4594  94.6227 15.16584657 90961"}}, "geometry": {"type": "Point", "coordinates": [-105.97315261438271, 9.32304611189447]}}, {"type": "Feature", "properties": {"norad_id": 59626, "name": "LEGION 2", "group": "resource", "lat": -9.165283599551827, "lon": 74.09346169117792, "alt_km": 521.4513995409261, "timestamp": "2025-12-24T05:51:19.263550+00:00", "meta": {"OBJECT_NAME": "LEGION 2", "OBJECT_ID": "2024-081B", "EPOCH": "2025-12-23T20:23:42.226656", "MEAN_MOTION": 15.16596553, "ECCENTRICITY": 0.00057373, "INCLINATION": 97.52, "RA_OF_ASC_NODE": 72.4814, "ARG_OF_PERICENTER": 245.5495, "MEAN_ANOMALY": 114.5139, "EPHEMERIS_TYPE": 0, "CLASSIFICATION_TYPE": "U", "NORAD_CAT_ID": 59626, "ELEMENT_SET_NO": 999, "REV_AT_EPOCH": 9096, "BSTAR": 0.00025867302, "MEAN_MOTION_DOT": 4.987e-05, "MEAN_MOTION_DDOT": 0}, "tle": {"line1": "1 59626U 24081B   25357.84979429  .00004987  00000+0  25867-3 0  9995", "line2": "2 59626  97.5200  72.4814 0005737 245.5495 114.5139 15.16596553 90969"}}, "geometry": {"type": "Point", "coordinates": [74.09346169117792, -9.165283599551827]}}, {"type": "Feature", "properties": {"norad_id": 60182, "name": "ALOS-4 (DAICHI-4)", "group": "resource", "lat": -80.55238489919765, "lon": 149.7351393229452, "alt_km": 639.2682590732975, "timestamp": "2025-12-24T05:51:19.263560+00:00", "meta": {"OBJECT_NAME": "ALOS-4 (DAICHI-4)", "OBJECT_ID": "2024-123A", "EPOCH": "2025-12-20T19:27:23.065632", "MEAN_MOTION": 14.79476706, "ECCENTRICITY": 0.00013885, "INCLINATION": 97.9224, "RA_OF_ASC_NODE": 89.5428, "ARG_OF_PERICENTER": 101.3368, "MEAN_ANOMALY": 258.8, "EPHEMERIS_TYPE": 0, "CLASSIFICATION_TYPE": "U", "NORAD_CAT_ID": 60182, "ELEMENT_SET_NO": 999, "REV_AT_EPOCH": 7950, "BSTAR": 0.00018386978, "MEAN_MOTION_DOT": 1.322e-05, "MEAN_MOTION_DDOT": 0}, "tle": {"line1": "1 60182U 24123A   25354.81068363  .00001322  00000+0  18387-3 0  9990", "line2": "2 60182  97.9224  89.5428 0001388 101.3368 258.8000 14.79476706 79505"}}, "geometry": {"type": "Point", "coordinates": [149.7351393229452, -80.55238489919765]}}, {"type": "Feature", "properties": {"norad_id": 60452, "name": "LEGION 3", "group": "resource", "lat": 40.15516365985478, "lon": 10.857982746198665, "alt_km": 521.1709010995337, "timestamp": "2025-12-24T05:51:19.263570+00:00", "meta": {"OBJECT_NAME": "LEGION 3", "OBJECT_ID": "2024-146A", "EPOCH": "2025-12-23T19:51:48.372480", "MEAN_MOTION": 15.15868102, "ECCENTRICITY": 0.00157181, "INCLINATION": 45.0003, "RA_OF_ASC_NODE": 250.6886, "ARG_OF_PERICENTER": 257.8603, "MEAN_ANOMALY": 102.0515, "EPHEMERIS_TYPE": 0, "CLASSIFICATION_TYPE": "U", "NORAD_CAT_ID": 60452, "ELEMENT_SET_NO": 999, "REV_AT_EPOCH": 7541, "BSTAR": 0.00026568383, "MEAN_MOTION_DOT": 4.922e-05, "MEAN_MOTION_DDOT": 0}, "tle": {"line1": "1 60452U 24146A   25357.82764320  .00004922  00000+0  26568-3 0  9994", "line2": "2 60452  45.0003 250.6886 0015718 257.8603 102.0515 15.15868102 75417"}}, "geometry": {"type": "Point", "coordinates": [10.857982746198665, 40.15516365985478]}}, {"type": "Feature", "properties": {"norad_id": 60453, "name": "LEGION 4", "group": "resource", "lat": 40.38234469830036, "lon": 102.03194710638081, "alt_km": 512.8064544203471, "timestamp": "2025-12-24T05:51:19.263581+00:00", "meta": {"OBJECT_NAME": "LEGION 4", "OBJECT_ID": "2024-146B", "EPOCH": "2025-12-23T23:01:51.345984", "MEAN_MOTION": 15.15938628, "ECCENTRICITY": 0.0008263, "INCLINATION": 45.0393, "RA_OF_ASC_NODE": 341.7637, "ARG_OF_PERICENTER": 13.2229, "MEAN_ANOMALY": 346.8865, "EPHEMERIS_TYPE": 0, "CLASSIFICATION_TYPE": "U", "NORAD_CAT_ID": 60453, "ELEMENT_SET_NO": 999, "REV_AT_EPOCH": 7428, "BSTAR": 0.00033112089, "MEAN_MOTION_DOT": 6.201e-05, "MEAN_MOTION_DDOT": 0}, "tle": {"line1": "1 60453U 24146B   25357.95962206  .00006201  00000+0  33112-3 0  9997", "line2": "2 60453  45.0393 341.7637 0008263  13.2229 346.8865 15.15938628 74282"}}, "geometry": {"type": "Point", "coordinates": [102.03194710638081, 40.38234469830036]}}]}